[{"OBJECT_NAME":"STARLINK-3612","OBJECT_ID":"2022-017C","EPOCH":"2026-03-09T22:45:39.042720","MEAN_MOTION":15.08842412,"ECCENTRICITY":0.0001348,"INCLINATION":53.2194,"RA_OF_ASC_NODE":337.9603,"ARG_OF_PERICENTER":82.8992,"MEAN_ANOMALY":277.2154,"EPHEMERIS_TYPE":0,"CLASSIFICATION_TYPE":"U","NORAD_CAT_ID":51770,"ELEMENT_SET_NO":999,"REV_AT_EPOCH":22265,"BSTAR":-3.9486148e-5,"MEAN_MOTION_DOT":-9.16e-6,"MEAN_MOTION_DDOT":0},{"OBJECT_NAME":"LEMUR-2-UNTITLED-SC","OBJECT_ID":"2025-061A","EPOCH":"2026-03-09T21:24:38.388672","MEAN_MOTION":15.12695529,"ECCENTRICITY":0.00173727,"INCLINATION":97.5556,"RA_OF_ASC_NODE":45.0864,"ARG_OF_PERICENTER":245.603,"MEAN_ANOMALY":114.3388,"EPHEMERIS_TYPE":0,"CLASSIFICATION_TYPE":"U","NORAD_CAT_ID":63351,"ELEMENT_SET_NO":999,"REV_AT_EPOCH":5257,"BSTAR":0.00033295729,"MEAN_MOTION_DOT":5.783e-5,"MEAN_MOTION_DDOT":0}]
